*******************************************************************************
Ephemeris / WWW_USER Tue Mar 27 20:27:38 2018 Pasadena, USA      / Horizons    
*******************************************************************************
Target body name: Oberon (704)                    {source: ura111}
Center body name: Solar System Barycenter (0)     {source: DE431mx}
Center-site name: BODY CENTER
*******************************************************************************
Start time      : A.D. 2000-Jan-01 00:00:00.0000 TDB
Stop  time      : A.D. 2010-Jan-01 00:00:00.0000 TDB
Step-size       : 7200 minutes
*******************************************************************************
Center geodetic : 0.00000000,0.00000000,0.0000000 {E-lon(deg),Lat(deg),Alt(km)}
Center cylindric: 0.00000000,0.00000000,0.0000000 {E-lon(deg),Dxy(km),Dz(km)}
Center radii    : (undefined)                                                  
Output units    : AU-D                                                         
Output type     : GEOMETRIC cartesian states
Output format   : 2 (position and velocity)
Reference frame : ICRF/J2000.0                                                 
Coordinate systm: Ecliptic and Mean Equinox of Reference Epoch                 
*******************************************************************************
JDTDB
   X     Y     Z
   VX    VY    VZ
*******************************************************************************
$$SOE
2454484.500000000 = A.D. 2008-Jan-19 00:00:00.0000 TDB 
   1.965605341182957E+01 -4.172586702361813E+00 -2.664786721584485E-01
   2.462552360079257E-03  3.220554244700141E-03 -5.585395835536214E-04
2454489.500000000 = A.D. 2008-Jan-24 00:00:00.0000 TDB 
   1.966037546094080E+01 -4.155355164672563E+00 -2.735454692723378E-01
  -8.130683937946475E-04  3.891741193847790E-03 -8.423139493016805E-04
2454494.500000000 = A.D. 2008-Jan-29 00:00:00.0000 TDB 
   1.965896320369570E+01 -4.135240376460843E+00 -2.690768388099767E-01
   1.309309722002983E-03  3.796826429135270E-03  1.736322929614668E-03
2454499.500000000 = A.D. 2008-Feb-03 00:00:00.0000 TDB 
   1.966983338188728E+01 -4.118292855883563E+00 -2.681241991151630E-01
   1.642208317543862E-03  3.258021305320069E-03 -1.549012829412060E-03
2454504.500000000 = A.D. 2008-Feb-08 00:00:00.0000 TDB 
   1.966940099201311E+01 -4.099837710383986E+00 -2.738431896659133E-01
  -9.450342799461795E-04  4.098455324734397E-03  4.124145451402173E-04
2454509.500000000 = A.D. 2008-Feb-13 00:00:00.0000 TDB 
   1.967223700498537E+01 -4.080286109832261E+00 -2.668383020010036E-01
   2.284384269914605E-03  3.479611585982479E-03  9.946503900432049E-04
2454514.500000000 = A.D. 2008-Feb-18 00:00:00.0000 TDB 
   1.968180699895867E+01 -4.063747468324372E+00 -2.707502229258857E-01
   3.899191505088639E-04  3.498294551004521E-03 -1.771662485229535E-03
2454519.500000000 = A.D. 2008-Feb-23 00:00:00.0000 TDB 
   1.967874908684863E+01 -4.044129497294705E+00 -2.722915587214061E-01
  -2.341446025133643E-04  4.092929498061393E-03  1.461934007740973E-03
2454524.500000000 = A.D. 2008-Feb-28 00:00:00.0000 TDB 
   1.968633521557465E+01 -4.025737389232610E+00 -2.661812491291875E-01
   2.516696422998799E-03  3.253895968200086E-03 -2.386371114874093E-04
2454529.500000000 = A.D. 2008-Mar-04 00:00:00.0000 TDB 
   1.969177789775285E+01 -4.008718190740861E+00 -2.730174755110656E-01
  -6.708832902826887E-04  3.821592246519960E-03 -1.116462416309596E-03
2454534.500000000 = A.D. 2008-Mar-09 00:00:00.0000 TDB 
   1.968948582085859E+01 -3.988566556364467E+00 -2.696231475459019E-01
   9.651980107796842E-04  3.879956734564843E-03  1.797917307966381E-03
2454539.500000000 = A.D. 2008-Mar-14 00:00:00.0000 TDB 
   1.969997127844521E+01 -3.971358788703535E+00 -2.674125090493708E-01
   1.878814145474070E-03  3.233557852267066E-03 -1.356466170831029E-03
2454544.500000000 = A.D. 2008-Mar-19 00:00:00.0000 TDB 
   1.970046908357022E+01 -3.953201296596421E+00 -2.737903066107785E-01
  -1.027556698821924E-03  4.069746549119370E-03  8.688877950732151E-05
2454549.500000000 = A.D. 2008-Mar-24 00:00:00.0000 TDB 
   1.970191963416649E+01 -3.933398676290048E+00 -2.671218018332903E-01
   2.062496871422627E-03  3.563829054687810E-03  1.251537910345577E-03
2454554.500000000 = A.D. 2008-Mar-29 00:00:00.0000 TDB 
   1.971198430440013E+01 -3.916807577915825E+00 -2.698909083493341E-01
   6.844966488950071E-04  3.429862831480475E-03 -1.799561508442355E-03
2454559.500000000 = A.D. 2008-Apr-03 00:00:00.0000 TDB 
   1.970913848043982E+01 -3.897412466563257E+00 -2.726600630219950E-01
  -5.142166154233534E-04  4.123104266043326E-03  1.249507782369189E-03
2454564.500000000 = A.D. 2008-Apr-08 00:00:00.0000 TDB 
   1.971545542475705E+01 -3.878667416098762E+00 -2.659873572524789E-01
   2.509957499087150E-03  3.301041855380063E-03  8.691402548256887E-05
2454569.500000000 = A.D. 2008-Apr-13 00:00:00.0000 TDB 
   1.972195815079269E+01 -3.861816049896515E+00 -2.723643314584479E-01
  -4.822543896709084E-04  3.746248061870931E-03 -1.354560503415506E-03
2454574.500000000 = A.D. 2008-Apr-18 00:00:00.0000 TDB 
   1.971898114722987E+01 -3.841686853768577E+00 -2.701556497430896E-01
   6.141875060701837E-04  3.955777594848320E-03  1.799063729361919E-03
2454579.500000000 = A.D. 2008-Apr-23 00:00:00.0000 TDB 
   1.972885318198345E+01 -3.824179929059910E+00 -2.667551769283517E-01
   2.079989490280097E-03  3.223340324571154E-03 -1.116254795801119E-03
2454584.500000000 = A.D. 2008-Apr-28 00:00:00.0000 TDB 
   1.973038655728883E+01 -3.806314773771597E+00 -2.735850912881164E-01
  -1.054528947028513E-03  4.028616940359808E-03 -2.395110762339831E-04
2454589.500000000 = A.D. 2008-May-03 00:00:00.0000 TDB 
   1.973053478835875E+01 -3.786311211287672E+00 -2.674707096848802E-01
   1.797101042618571E-03  3.650907983285051E-03  1.463540567238500E-03
2454594.500000000 = A.D. 2008-May-08 00:00:00.0000 TDB 
   1.974087817266274E+01 -3.769609569924234E+00 -2.690103737610097E-01
   9.803380601361520E-04  3.369174367741092E-03 -1.769362796391446E-03
2454599.500000000 = A.D. 2008-May-13 00:00:00.0000 TDB 
   1.973845677532320E+01 -3.750471881833513E+00 -2.729179346183067E-01
  -7.517829371216101E-04  4.137865291507154E-03  9.951323825726202E-04
2454604.500000000 = A.D. 2008-May-18 00:00:00.0000 TDB 
   1.974341042260594E+01 -3.731386033952468E+00 -2.659045533756283E-01
   2.444209123770606E-03  3.360788439671980E-03  4.124911921015071E-04
2454609.500000000 = A.D. 2008-May-23 00:00:00.0000 TDB 
   1.975088007695329E+01 -3.714654203019240E+00 -2.716165875060452E-01
  -2.572328153107288E-04  3.669081150281377E-03 -1.548218242786146E-03
2454614.500000000 = A.D. 2008-May-28 00:00:00.0000 TDB 
   1.974744090494901E+01 -3.694606013664754E+00 -2.706574813024578E-01
   2.692008174669207E-04  4.021358911455057E-03  1.738845544264591E-03
2454619.500000000 = A.D. 2008-Jun-02 00:00:00.0000 TDB 
   1.975649433216597E+01 -3.676773297398762E+00 -2.661855681810919E-01
   2.237378357351062E-03  3.227412601610059E-03 -8.407729837215983E-04
2454624.500000000 = A.D. 2008-Jun-07 00:00:00.0000 TDB 
   1.975913237194766E+01 -3.659184954708988E+00 -2.732447222513164E-01
  -1.021100617443635E-03  3.975298737548840E-03 -5.577596145525195E-04
2454629.500000000 = A.D. 2008-Jun-12 00:00:00.0000 TDB 
   1.975808698710896E+01 -3.639034706065770E+00 -2.678922498191498E-01
   1.493884899875307E-03  3.739449866364629E-03  1.629566223301609E-03
2454634.500000000 = A.D. 2008-Jun-17 00:00:00.0000 TDB 
   1.976849129405849E+01 -3.622169246159602E+00 -2.681526405169157E-01
   1.265077864508056E-03  3.318629074480116E-03 -1.683144190702245E-03
2454639.500000000 = A.D. 2008-Jun-22 00:00:00.0000 TDB 
   1.976668906478783E+01 -3.603312841698318E+00 -2.730607776585516E-01
  -9.386461457378248E-04  4.136709802134537E-03  7.078125682370345E-04
2454644.500000000 = A.D. 2008-Jun-27 00:00:00.0000 TDB 
   1.977023610398950E+01 -3.583910802764634E+00 -2.659384157821759E-01
   2.323395505724808E-03  3.430427087060309E-03  7.250623195474006E-04
2454649.500000000 = A.D. 2008-Jul-02 00:00:00.0000 TDB 
   1.977854633407808E+01 -3.567245067155981E+00 -2.707946904460042E-01
   1.430452742069357E-06  3.591878798011859E-03 -1.689057686529909E-03
2454654.500000000 = A.D. 2008-Jul-07 00:00:00.0000 TDB 
   1.977487524320187E+01 -3.547334859412616E+00 -2.711260401958541E-01
  -6.536278957052263E-05  4.076361804910318E-03  1.621648617275457E-03
2454659.500000000 = A.D. 2008-Jul-12 00:00:00.0000 TDB 
   1.978293024624321E+01 -3.529158391399349E+00 -2.657236043647222E-01
   2.343843542127940E-03  3.245882200616899E-03 -5.402440592326524E-04
2454664.500000000 = A.D. 2008-Jul-17 00:00:00.0000 TDB 
   1.978669386336049E+01 -3.511818759484455E+00 -2.727739845476940E-01
  -9.290414694686914E-04  3.911800535253627E-03 -8.563931898689118E-04
2454669.500000000 = A.D. 2008-Jul-22 00:00:00.0000 TDB 
   1.978460351644361E+01 -3.491579930088263E+00 -2.683574451024064E-01
   1.164749690978079E-03  3.826169803641114E-03  1.744662324984571E-03
2454674.500000000 = A.D. 2008-Jul-27 00:00:00.0000 TDB 
   1.979483848899052E+01 -3.474499488282783E+00 -2.673226585811616E-01
   1.531041458364693E-03  3.280283697166586E-03 -1.538143653289446E-03
2454679.500000000 = A.D. 2008-Aug-01 00:00:00.0000 TDB 
   1.979383655374592E+01 -3.455942444468347E+00 -2.730736066988513E-01
  -1.075159734974903E-03  4.120735187161721E-03  3.947259095257903E-04
2454684.500000000 = A.D. 2008-Aug-06 00:00:00.0000 TDB 
   1.979596929196513E+01 -3.436255903031225E+00 -2.660694266674676E-01
   2.150003344401651E-03  3.507604061001784E-03  1.011856557746833E-03
2454689.500000000 = A.D. 2008-Aug-11 00:00:00.0000 TDB 
   1.980494894236314E+01 -3.419597566977023E+00 -2.699103628253190E-01
   2.829451879102138E-04  3.517771034968565E-03 -1.771545937425595E-03
